ALOS (DAICHI)           
1 28931U 06002A   25351.73419158  .00001110  00000+0  19545-3 0  9994
2 28931  98.1098 303.1864 0001361 113.5739 246.5610 14.69501788 61443
H-2A R/B                
1 28932U 06002B   25353.12751143  .00008842  00000+0  46406-3 0  9998
2 28932  98.2321 128.3982 0054657 154.7707 205.6211 15.14694451 82234
RESURS-DK 1             
1 29228U 06021A   25353.70982341  .00001861  00000+0  11373-3 0  9997
2 29228  69.9339  83.8253 0006864 253.3624 106.6789 15.12197286 75430
CZ-4B R/B               
1 29507U 06046C   25353.37003829  .00003364  00000+0  17662-3 0  9999
2 29507  97.5726  33.4909 0033835 183.2500 176.8518 15.15935247 47874
CZ-2C R/B               
1 31114U 07010B   25353.83441862  .00000091  00000+0  60800-4 0  9999
2 31114  98.3977 106.1282 0059400 165.3654 194.9261 14.20212534968383
COSMO-SKYMED 1          
1 31598U 07023A   25353.81221013  .00003005  00000+0  27447-3 0  9998
2 31598  97.8836 179.2577 0001581  85.3043 274.8358 14.95817648  2962
COSMOS 2428             
1 31792U 07029A   25353.74735029  .00000150  00000+0  10621-3 0  9993
2 31792  70.9365  11.1665 0004069  13.6571 346.4659 14.12892275952808
SL-16 R/B               
1 31793U 07029B   25353.39872376  .00000166  00000+0  11085-3 0  9994
2 31793  70.9756 341.1595 0001944 262.0420 209.9938 14.14815776954014
KORONAS-FOTON           
1 33504U 09003A   25353.76618623  .00007294  00000+0  17357-3 0  9991
2 33504  82.4303 358.8240 0013424  86.5085 273.7697 15.41331364933426
CZ-2C R/B               
1 37731U 11030B   25353.64177666  .00000995  00000+0  13276-3 0  9991
2 37731  97.8423 307.5959 0051376 250.5071 282.8404 14.80921965778247
H-2A R/B                
1 38341U 12025E   25353.46903780  .00001638  00000+0  15526-3 0  9993
2 38341  98.4606 309.2182 0044178 213.9012 145.9381 14.94486942736234
SHIJIAN-16 (SJ-16)      
1 39358U 13057A   25353.91125199  .00001241  00000+0  12494-3 0  9999
2 39358  74.9727 336.0850 0017827 303.1417  56.8060 14.92002499659606
